STARLINK-34733          
1 66487U 25263C   25337.91670139 -.01947234  00000+0 -18076-1 0  9999
2 66487  42.9993 177.1296 0001318 281.9724 224.4884 15.69589261  4219
STARLINK-35515          
1 66488U 25263D   25338.16670139 -.01970085  00000+0 -19131-1 0  9991
2 66488  42.9992 175.6191 0001445 279.6824 202.5594 15.68547411  4251
STARLINK-35696          
1 66489U 25263E   25338.16670139 -.01970438  00000+0 -19135-1 0  9998
2 66489  42.9991 175.6140 0001453 273.7433 210.4166 15.68547040  4256
STARLINK-35693          
1 66490U 25263F   25338.16670139 -.01971132  00000+0 -19143-1 0  9991
2 66490  42.9993 175.6091 0001460 273.3256 212.7510 15.68547489  4257
STARLINK-35663          
1 66491U 25263G   25338.16670139 -.01967662  00000+0 -19108-1 0  9996
2 66491  42.9992 175.5993 0001397 273.9696 215.9445 15.68543921  4259
STARLINK-35673          
1 66492U 25263H   25338.16670139 -.01970224  00000+0 -19131-1 0  9991
2 66492  42.9990 175.5945 0001709 273.1567 218.6693 15.68547031  4252
STARLINK-35597          
1 66493U 25263J   25338.16670139 -.01979081  00000+0 -19223-1 0  9994
2 66493  42.9991 175.5895 0001509 274.8955 218.8432 15.68555399  4254
STARLINK-35689          
1 66494U 25263K   25338.16670139 -.01975397  00000+0 -19185-1 0  9998
2 66494  42.9992 175.6046 0001518 274.7947 213.1951 15.68552263  4256
STARLINK-35832          
1 66495U 25263L   25338.16670139 -.01972106  00000+0 -19152-1 0  9998
2 66495  42.9989 175.5846 0001459 275.1765 220.4845 15.68548497  4254
STARLINK-35909          
1 66496U 25263M   25338.16670139 -.01981122  00000+0 -19244-1 0  9999
2 66496  42.9990 175.5798 0001567 275.2328 222.3381 15.68557360  4254
STARLINK-35899          
1 66497U 25263N   25338.16670139 -.01974883  00000+0 -19188-1 0  9993
2 66497  42.9991 175.5744 0001479 274.4901 225.0182 15.68542587  4251
STARLINK-35907          
1 66498U 25263P   25338.16670139 -.01978965  00000+0 -19229-1 0  9995
2 66498  42.9991 175.5698 0001540 273.7205 227.7021 15.68546406  4253
